{"type": "FeatureCollection", "features": [{"geometry": {"type": "Point", "coordinates": [-77.0369864, 38.9215816]}, "type": "Feature", "properties": {"city": "Washington", "zip": "20009", "year": 2015, "state": "DC", "human": "Adranga", "address": "2420 16th St NW Apt 702", "_id": 1}}, {"geometry": {"type": "Point", "coordinates": [-72.7798479, 44.1926386]}, "type": "Feature", "properties": {"city": "Waitsfield", "zip": "05673", "year": 2015, "state": "VT", "human": "Alan and Kate", "address": "PO Box 736", "_id": 4}}, {"geometry": {"type": "Point", "coordinates": [-122.242179, 37.4799999]}, "type": "Feature", "properties": {"city": "Redwood City", "zip": "94062", "year": 2015, "state": "CA", "human": "Alyssa Andersen", "address": "271 Jeter St", "_id": 3}}, {"geometry": {"type": "Point", "coordinates": [-77.059443, 38.827326]}, "type": "Feature", "properties": {"city": "Alexandria", "zip": "22301", "year": 2015, "state": "VA", "human": "Bak", "address": "111 E Uhler Ave #202", "_id": 5}}, {"geometry": {"type": "Point", "coordinates": [-72.496788, 44.37112]}, "type": "Feature", "properties": {"city": "Maple Corner", "zip": "05648", "year": 2015, "state": "VT", "human": "Barb and Bob", "address": "9704 County Rd", "_id": 6}}, {"geometry": {"type": "Point", "coordinates": [-72.49355299999999, 43.300163]}, "type": "Feature", "properties": {"city": "Springfield", "zip": "05156", "year": 2015, "state": "VT", "human": "Bensons", "address": "25 Clement St", "_id": 7}}, {"geometry": {"type": "Point", "coordinates": [-72.5553714, 43.0353708]}, "type": "Feature", "properties": {"city": "Westminster West", "zip": "05346", "year": 2015, "state": "VT", "human": "Beth Henk", "address": "Burnett Rd", "_id": 8}}, {"geometry": {"type": "Point", "coordinates": [-77.86484399999999, 39.574293]}, "type": "Feature", "properties": {"city": "Falling Waters", "zip": "25419", "year": 2015, "state": "WV", "human": "Bike Trip Tom", "address": "908 Riparian Dr", "_id": 9}}, {"geometry": {"type": "Point", "coordinates": [-72.53221599999999, 44.3311016]}, "type": "Feature", "properties": {"city": "Montpelier", "zip": "05602", "year": 2015, "state": "VT", "human": "Bob and Del", "address": "450 Fitch Rd", "_id": 11}}, {"geometry": {"type": "Point", "coordinates": [-71.112794, 42.3586945]}, "type": "Feature", "properties": {"city": "Cambridge", "zip": "02139", "year": 2015, "state": "MA", "human": "Brian and Carrie", "address": "224 Chestnut St", "_id": 12}}, {"geometry": {"type": "Point", "coordinates": [-72.6064633, 43.1716817]}, "type": "Feature", "properties": {"city": "Grafton", "zip": "05146", "year": 2015, "state": "VT", "human": "Bryars", "address": "", "_id": 13}}, {"geometry": {"type": "Point", "coordinates": [-73.3815691, 43.3338016]}, "type": "Feature", "properties": {"city": "Granville", "zip": "12832", "year": 2015, "state": "NY", "human": "Cait and David", "address": "23 Blood St", "_id": 15}}, {"geometry": {"type": "Point", "coordinates": [-122.4736562, 37.8013928]}, "type": "Feature", "properties": {"city": "SF", "zip": "94129", "year": 2015, "state": "CA", "human": "Chasse fam", "address": "1216 Ralston Avenue", "_id": 17}}, {"geometry": {"type": "Point", "coordinates": [-72.5217237, 42.975268]}, "type": "Feature", "properties": {"city": "Putney", "zip": "05346", "year": 2015, "state": "VT", "human": "Cindy Major", "address": "PO Box 670", "_id": 18}}, {"geometry": {"type": "Point", "coordinates": [-72.562294, 43.053406]}, "type": "Feature", "properties": {"city": "Westminster West", "zip": "05346", "year": 2015, "state": "VT", "human": "Claire G", "address": "23 Buttercup Lane", "_id": 19}}, {"geometry": {"type": "Point", "coordinates": [-72.548653, 44.235008]}, "type": "Feature", "properties": {"city": "Berlin", "zip": "05602", "year": 2015, "state": "VT", "human": "Dan and Grace", "address": "66 Plateau Dr", "_id": 22}}, {"geometry": {"type": "Point", "coordinates": [-72.89831199999999, 44.4416253]}, "type": "Feature", "properties": {"city": "Jericho", "zip": "05465", "year": 2015, "state": "VT", "human": "Danika and Will", "address": "4501 Notch Rd", "_id": 24}}, {"geometry": {"type": "Point", "coordinates": [-72.483559, 44.379898]}, "type": "Feature", "properties": {"city": "Maple Corner", "zip": "05648", "year": 2015, "state": "VT", "human": "David H", "address": "770 Robinson Cemetery Rd", "_id": 23}}, {"geometry": {"type": "Point", "coordinates": [-82.02820009999999, 41.5053178]}, "type": "Feature", "properties": {"city": "Avon Lake", "zip": "44012", "year": 2015, "state": "OH", "human": "Don and Lenore", "address": "", "_id": 26}}, {"geometry": {"type": "Point", "coordinates": [-69.7905955, 44.7130794]}, "type": "Feature", "properties": {"city": "Norridgewock", "zip": "04957", "year": 2015, "state": "ME", "human": "Ellie Baker", "address": "PO Box 494", "_id": 25}}, {"geometry": {"type": "Point", "coordinates": [-73.193776, 44.496533]}, "type": "Feature", "properties": {"city": "Winooski", "zip": "05404", "year": 2015, "state": "VT", "human": "Ellie Denton", "address": "217 Mallets Bay Ave", "_id": 27}}, {"geometry": {"type": "Point", "coordinates": [-75.8892501, 43.0526636]}, "type": "Feature", "properties": {"city": "Chittenango", "zip": "13037", "year": 2015, "state": "NY", "human": "Emily and Walt", "address": "716 Tuscarora Rd", "_id": 28}}, {"geometry": {"type": "Point", "coordinates": [-93.29621, 44.9383399]}, "type": "Feature", "properties": {"city": "Minneapolis", "zip": "55408", "year": 2015, "state": "MN", "human": "Ense", "address": "3538 Fremont Ave South, Apt 2", "_id": 29}}, {"geometry": {"type": "Point", "coordinates": [-74.5114497, 40.54507520000001]}, "type": "Feature", "properties": {"city": "Piscataway", "zip": "08854", "year": 2015, "state": "NJ", "human": "Free", "address": "301 River Road", "_id": 30}}, {"geometry": {"type": "Point", "coordinates": [-89.3949389, 43.053711]}, "type": "Feature", "properties": {"city": "Madison", "zip": "53715", "year": 2015, "state": "WI", "human": "Glen", "address": "721 West Olin Ave", "_id": 31}}, {"geometry": {"type": "Point", "coordinates": [-122.252132, 37.839588]}, "type": "Feature", "properties": {"city": "Oakland", "zip": "94618", "year": 2015, "state": "CA", "human": "Goldberg Safirs", "address": "5365 Manila Ave", "_id": 33}}, {"geometry": {"type": "Point", "coordinates": [-73.156117, 43.9926282]}, "type": "Feature", "properties": {"city": "Middlebury", "zip": "05753", "year": 2015, "state": "VT", "human": "Granddaddy", "address": "350 Lodge Road, Apt 311", "_id": 32}}, {"geometry": {"type": "Point", "coordinates": [-70.9756922, 42.6459013]}, "type": "Feature", "properties": {"city": "Boxford ", "zip": "01921", "year": 2015, "state": "MA", "human": "Grandma", "address": "11 Upton Ln", "_id": 34}}, {"geometry": {"type": "Point", "coordinates": [-72.9275397, 41.319083]}, "type": "Feature", "properties": {"city": "New Haven", "zip": "06511", "year": 2015, "state": "CT", "human": "Gray", "address": "149 Winchester Ave", "_id": 35}}, {"geometry": {"type": "Point", "coordinates": [-72.54261, 44.25882]}, "type": "Feature", "properties": {"city": "Montpelier", "zip": "05602", "year": 2015, "state": "VT", "human": "Gulks", "address": "826 Towne Hill Rd", "_id": 36}}, {"geometry": {"type": "Point", "coordinates": [-72.5778, 44.26064]}, "type": "Feature", "properties": {"city": "Montpelier", "zip": "05601", "year": 2015, "state": "VT", "human": "Hannah and Ben", "address": "PO Box 216", "_id": 37}}, {"geometry": {"type": "Point", "coordinates": [-72.1952089, 44.0155422]}, "type": "Feature", "properties": {"city": "Bradford", "zip": "05033", "year": 2015, "state": "VT", "human": "Hanzas", "address": "Hackett Hill Rd", "_id": 38}}, {"geometry": {"type": "Point", "coordinates": [-72.57479099999999, 44.258401]}, "type": "Feature", "properties": {"city": "Montpelier", "zip": "05602", "year": 2015, "state": "VT", "human": "Hausman", "address": "12 Downing St, Apt 2", "_id": 39}}, {"geometry": {"type": "Point", "coordinates": [-72.57164, 44.254705]}, "type": "Feature", "properties": {"city": "Montpelier", "zip": "05602", "year": 2015, "state": "VT", "human": "Holly Abercrombie", "address": "161 Barre St, Apt #2", "_id": 40}}, {"geometry": {"type": "Point", "coordinates": [-72.575577, 44.25453599999999]}, "type": "Feature", "properties": {"city": "Montpelier", "zip": "05602", "year": 2015, "state": "VT", "human": "Homeier", "address": "61 Prospect St", "_id": 41}}, {"geometry": {"type": "Point", "coordinates": [-73.2468822, 44.5081096]}, "type": "Feature", "properties": {"city": "Burlington", "zip": "05408", "year": 2015, "state": "VT", "human": "Horner", "address": "1195 North Ave #11", "_id": 42}}, {"geometry": {"type": "Point", "coordinates": [-76.99914849999999, 38.89470350000001]}, "type": "Feature", "properties": {"city": "Washington", "zip": "20002", "year": 2015, "state": "DC", "human": "Huizenga and Leah", "address": "501 D St NE", "_id": 43}}, {"geometry": {"type": "Point", "coordinates": [-72.9924128, 44.4053135]}, "type": "Feature", "properties": {"city": "Richmond", "zip": "05477", "year": 2015, "state": "VT", "human": "James Merriam", "address": "PO Box 898", "_id": 46}}, {"geometry": {"type": "Point", "coordinates": [-72.4222489, 44.095963]}, "type": "Feature", "properties": {"city": "Washington", "zip": "05675", "year": 2015, "state": "VT", "human": "Jane Hartsell and Barb", "address": "979 West Corinth Rd", "_id": 48}}, {"geometry": {"type": "Point", "coordinates": [-72.98724399999999, 43.417736]}, "type": "Feature", "properties": {"city": "Wallingford", "zip": "05773", "year": 2015, "state": "VT", "human": "Jeremy and Erin", "address": "3168 Hartsboro Rd", "_id": 49}}, {"geometry": {"type": "Point", "coordinates": [-122.1540105, 37.4276338]}, "type": "Feature", "properties": {"city": "Stanford", "zip": "94305", "year": 2015, "state": "CA", "human": "Jers", "address": "87 Hulme Ct, Apt 618", "_id": 45}}, {"geometry": {"type": "Point", "coordinates": [-72.0836695, 44.5372018]}, "type": "Feature", "properties": {"city": "Lyndonville", "zip": "05851", "year": 2015, "state": "VT", "human": "Jill Morrison and Barrett", "address": "PO Box 576", "_id": 50}}, {"geometry": {"type": "Point", "coordinates": [-97.75532899999999, 30.282688]}, "type": "Feature", "properties": {"city": "Austin", "zip": "78703", "year": 2015, "state": "TX", "human": "Kat", "address": "1509 B Marshall Ln", "_id": 51}}, {"geometry": {"type": "Point", "coordinates": [-79.931061, 40.424307]}, "type": "Feature", "properties": {"city": "Pittsburgh", "zip": "15217", "year": 2015, "state": "PA", "human": "Katie and Adam", "address": "945 Lilac St", "_id": 52}}, {"geometry": {"type": "Point", "coordinates": [-72.576302, 44.253895]}, "type": "Feature", "properties": {"city": "Montpelier", "zip": "05602", "year": 2015, "state": "VT", "human": "Katie and Jon", "address": "29 Pleasant St", "_id": 53}}, {"geometry": {"type": "Point", "coordinates": [-90.92508319999999, 41.8571761]}, "type": "Feature", "properties": {"city": "Lowden", "zip": "52255", "year": 2015, "state": "IA", "human": "Kip in Illinois", "address": "PO Box 254", "_id": 55}}, {"geometry": {"type": "Point", "coordinates": [-73.202294, 44.450142]}, "type": "Feature", "properties": {"city": "Burlington", "zip": "05403", "year": 2015, "state": "VT", "human": "LaMoy", "address": "20 Joy Drive #205", "_id": 54}}, {"geometry": {"type": "Point", "coordinates": [-72.87000730000001, 44.6212345]}, "type": "Feature", "properties": {"city": "Cambridge", "zip": "05444", "year": 2015, "state": "VT", "human": "Lanan", "address": "1546 Lower Pleasant Valley Rd", "_id": 56}}, {"geometry": {"type": "Point", "coordinates": [-77.03683, 38.93301599999999]}, "type": "Feature", "properties": {"city": "Washington", "zip": "20010", "year": 2015, "state": "DC", "human": "Langfitts", "address": "3360 16th St NW Apt 1", "_id": 20}}, {"geometry": {"type": "Point", "coordinates": [-71.07209999999999, 42.443646]}, "type": "Feature", "properties": {"city": "Melrose", "zip": "02176", "year": 2015, "state": "MA", "human": "Langwig", "address": "2000 Stone Place Apt 2224", "_id": 57}}, {"geometry": {"type": "Point", "coordinates": [-71.068377, 42.359676]}, "type": "Feature", "properties": {"city": "Boston", "zip": "02114", "year": 2015, "state": "MA", "human": "Laurel Wickberg", "address": "55 Revere St, Apt 9", "_id": 58}}, {"geometry": {"type": "Point", "coordinates": [-77.04072099999999, 38.91673300000001]}, "type": "Feature", "properties": {"city": "Washington", "zip": "20009", "year": 2015, "state": "DC", "human": "Lefrak", "address": "1762 U St NW", "_id": 59}}, {"geometry": {"type": "Point", "coordinates": [-122.4554855, 37.7949871]}, "type": "Feature", "properties": {"city": "SF", "zip": "94129", "year": 2015, "state": "CA", "human": "Lisenby's", "address": "857-B Macarthur Ave", "_id": 60}}, {"geometry": {"type": "Point", "coordinates": [-89.36738199999999, 43.078968]}, "type": "Feature", "properties": {"city": "Madison", "zip": "53703", "year": 2015, "state": "WI", "human": "Lubes", "address": "926 Spaight Street, Apt 2", "_id": 61}}, {"geometry": {"type": "Point", "coordinates": [-72.86886729999999, 43.9304034]}, "type": "Feature", "properties": {"city": "Hancock", "zip": "05748", "year": 2015, "state": "VT", "human": "Margie and Owen", "address": "Shampeny Hill Rd", "_id": 62}}, {"geometry": {"type": "Point", "coordinates": [-72.269249, 44.51388499999999]}, "type": "Feature", "properties": {"city": "Walden", "zip": "05836", "year": 2015, "state": "VT", "human": "Matt and Allison Gulka", "address": "370 Nicholson Rd", "_id": 99}}, {"geometry": {"type": "Point", "coordinates": [-87.693673, 41.902282]}, "type": "Feature", "properties": {"city": "Chicago", "zip": "60622", "year": 2015, "state": "IL", "human": "Maya G", "address": "2642 W Haddon Ave", "_id": 63}}, {"geometry": {"type": "Point", "coordinates": [-74.2347154, 42.6659873]}, "type": "Feature", "properties": {"city": "Gallupville", "zip": "12073", "year": 2015, "state": "NY", "human": "Mclean", "address": "PO Box 58", "_id": 64}}, {"geometry": {"type": "Point", "coordinates": [-77.0370568, 38.9229084]}, "type": "Feature", "properties": {"city": "Washington", "zip": "20009", "year": 2015, "state": "DC", "human": "Mikaela's Becky", "address": "2480 16th St NW", "_id": 65}}, {"geometry": {"type": "Point", "coordinates": [-73.9976946, 40.7250632]}, "type": "Feature", "properties": {"city": "NY", "zip": "10012", "year": 2015, "state": "NY", "human": "Mitts", "address": "", "_id": 66}}, {"geometry": {"type": "Point", "coordinates": [-122.31498, 37.925398]}, "type": "Feature", "properties": {"city": "El Cerrito", "zip": "94530", "year": 2015, "state": "CA", "human": "Mulls", "address": "1814 Liberty St", "_id": 67}}, {"geometry": {"type": "Point", "coordinates": [-73.1050434, 44.4538732]}, "type": "Feature", "properties": {"city": "Williston", "zip": "05495", "year": 2015, "state": "VT", "human": "Naresh", "address": "39 Dunmore Ln", "_id": 69}}, {"geometry": {"type": "Point", "coordinates": [-73.05401599999999, 44.405956]}, "type": "Feature", "properties": {"city": "Richmond", "zip": "05477", "year": 2015, "state": "VT", "human": "Nick F", "address": "759 East Hill Rd", "_id": 70}}, {"geometry": {"type": "Point", "coordinates": [-77.039429, 38.915326]}, "type": "Feature", "properties": {"city": "Washington", "zip": "20009", "year": 2015, "state": "DC", "human": "Nico and Becky", "address": "1706 T Street NW, Apt 305", "_id": 72}}, {"geometry": {"type": "Point", "coordinates": [-68.562811, 44.634776]}, "type": "Feature", "properties": {"city": "Ellsworth", "zip": "04605", "year": 2015, "state": "ME", "human": "Nicole Grohoski", "address": "110 Hansons Landing Rd", "_id": 71}}, {"geometry": {"type": "Point", "coordinates": [-71.16473409999999, 42.3493037]}, "type": "Feature", "properties": {"city": "Brighton", "zip": "02135", "year": 2015, "state": "MA", "human": "OB", "address": "82 Langley Rd", "_id": 73}}, {"geometry": {"type": "Point", "coordinates": [-122.3662014, 38.4084103]}, "type": "Feature", "properties": {"city": "Yountville", "zip": "94599", "year": 2015, "state": "CA", "human": "Olen", "address": "2042 Monroe St", "_id": 74}}, {"geometry": {"type": "Point", "coordinates": [-72.5415524, 44.3068377]}, "type": "Feature", "properties": {"city": "Montpelier", "zip": "05602", "year": 2015, "state": "VT", "human": "Padilla and Todd", "address": "3435 North St", "_id": 75}}, {"geometry": {"type": "Point", "coordinates": [-72.58867599999999, 44.270733]}, "type": "Feature", "properties": {"city": "Montpelier", "zip": "05602", "year": 2015, "state": "VT", "human": "Patrick Lawrence", "address": "5 Dairy Lane", "_id": 77}}, {"geometry": {"type": "Point", "coordinates": [-80.7990185, 35.4874459]}, "type": "Feature", "properties": {"city": "Davidson", "zip": "28036", "year": 2015, "state": "NC", "human": "Paul G", "address": "PO Box 1235", "_id": 76}}, {"geometry": {"type": "Point", "coordinates": [-98.594792, 29.50487099999999]}, "type": "Feature", "properties": {"city": "San Antonio", "zip": "78240", "year": 2015, "state": "TX", "human": "PHIL", "address": "5455 Rowley Rd Apt 3202", "_id": 78}}, {"geometry": {"type": "Point", "coordinates": [-72.573292, 44.259593]}, "type": "Feature", "properties": {"city": "Montpelier", "zip": "05602", "year": 2015, "state": "VT", "human": "Pollaidh", "address": "36 E State St Apt 6", "_id": 79}}, {"geometry": {"type": "Point", "coordinates": [-73.6667152, 40.6747188]}, "type": "Feature", "properties": {"city": "Malverne", "zip": "11565", "year": 2015, "state": "NY", "human": "Rick and Caroline", "address": "69 Utterby Road", "_id": 81}}, {"geometry": {"type": "Point", "coordinates": [-122.4699533, 37.8011757]}, "type": "Feature", "properties": {"city": "SF", "zip": "94129", "year": 2015, "state": "CA", "human": "Roberta Morganstern", "address": "1263 B Storey Avenue", "_id": 83}}, {"geometry": {"type": "Point", "coordinates": [-72.5236456, 43.0531851]}, "type": "Feature", "properties": {"city": "Westminster West", "zip": "05346", "year": 2015, "state": "VT", "human": "Robin Major", "address": "c/o Patch Farm", "_id": 85}}, {"geometry": {"type": "Point", "coordinates": [-72.5760094, 44.2601039]}, "type": "Feature", "properties": {"city": "Montpelier", "zip": "05602", "year": 2015, "state": "VT", "human": "Robyn and Lloyd", "address": "12 State St", "_id": 86}}, {"geometry": {"type": "Point", "coordinates": [-121.723371, 38.553916]}, "type": "Feature", "properties": {"city": "Davis", "zip": "95618", "year": 2015, "state": "CA", "human": "Salls", "address": "2218 E 8th St", "_id": 84}}, {"geometry": {"type": "Point", "coordinates": [-122.250456, 37.88145799999999]}, "type": "Feature", "properties": {"city": "Berkeley", "zip": "94708", "year": 2015, "state": "CA", "human": "Sheldon and Matt", "address": "1577 Campus Drive", "_id": 90}}, {"geometry": {"type": "Point", "coordinates": [-83.72467499999999, 42.250721]}, "type": "Feature", "properties": {"city": "Ann Arbor", "zip": "48104", "year": 2015, "state": "MI", "human": "Skyler", "address": "1526 Pine Valley Blvd #1", "_id": 91}}, {"geometry": {"type": "Point", "coordinates": [-72.53744499999999, 43.107792]}, "type": "Feature", "properties": {"city": "Putney", "zip": "05346", "year": 2015, "state": "VT", "human": "Stacey S", "address": "6478 Westminster West Rd", "_id": 92}}, {"geometry": {"type": "Point", "coordinates": [-71.308928, 42.1891594]}, "type": "Feature", "properties": {"city": "Medfield", "zip": "02052", "year": 2015, "state": "MA", "human": "Stephen Pope", "address": "4 Crane Pl", "_id": 93}}, {"geometry": {"type": "Point", "coordinates": [-72.5548048, 42.9862505]}, "type": "Feature", "properties": {"city": "Putney", "zip": "05346", "year": 2015, "state": "VT", "human": "Stickneys", "address": "The Putney School", "_id": 94}}, {"geometry": {"type": "Point", "coordinates": [-72.444778, 43.103477]}, "type": "Feature", "properties": {"city": "Westminster", "zip": "05158", "year": 2015, "state": "VT", "human": "Tombergs", "address": "102 Deep Root Dr", "_id": 95}}, {"geometry": {"type": "Point", "coordinates": [-122.10465, 37.89361]}, "type": "Feature", "properties": {"city": "Lafayette", "zip": "94549", "year": 2015, "state": "CA", "human": "Trapper Byrne", "address": "1013 Dyer Dr", "_id": 14}}, {"geometry": {"type": "Point", "coordinates": [-72.697334, 44.51767299999999]}, "type": "Feature", "properties": {"city": "Stowe", "zip": "05672", "year": 2015, "state": "VT", "human": "Winchell", "address": "437 Maple Run Ln", "_id": 96}}, {"geometry": {"type": "Point", "coordinates": [-79.961471, 40.470591]}, "type": "Feature", "properties": {"city": " Apt", "zip": "PA", "year": 15201, "state": "Pittsburgh", "human": "Yasaswi", "address": "178 42nd St", "_id": 97}}, {"geometry": {"type": "Point", "coordinates": [-77.0369864, 38.9215816]}, "type": "Feature", "properties": {"city": "Washington", "zip": "20009", "year": 2014, "state": "DC", "human": "Adranga", "address": "2420 16th St NW Apt 702", "_id": 1}}, {"geometry": {"type": "Point", "coordinates": [-72.7798479, 44.1926386]}, "type": "Feature", "properties": {"city": "Waitsfield", "zip": "05673", "year": 2014, "state": "VT", "human": "Alan and Kate", "address": "PO Box 736", "_id": 4}}, {"geometry": {"type": "Point", "coordinates": [-122.242179, 37.4799999]}, "type": "Feature", "properties": {"city": "Redwood City", "zip": "94062", "year": 2014, "state": "CA", "human": "Alyssa Andersen", "address": "271 Jeter St", "_id": 3}}, {"geometry": {"type": "Point", "coordinates": [-77.059443, 38.827326]}, "type": "Feature", "properties": {"city": "Alexandria", "zip": "22301", "year": 2014, "state": "VA", "human": "Bak", "address": "111 E Uhler Ave #202", "_id": 5}}, {"geometry": {"type": "Point", "coordinates": [-72.496788, 44.37112]}, "type": "Feature", "properties": {"city": "Maple Corner", "zip": "05648", "year": 2014, "state": "VT", "human": "Barb and Bob", "address": "9704 County Rd", "_id": 6}}, {"geometry": {"type": "Point", "coordinates": [-72.49355299999999, 43.300163]}, "type": "Feature", "properties": {"city": "Springfield", "zip": "05156", "year": 2014, "state": "VT", "human": "Bensons", "address": "25 Clement St", "_id": 7}}, {"geometry": {"type": "Point", "coordinates": [-72.5553714, 43.0353708]}, "type": "Feature", "properties": {"city": "Westminster West", "zip": "05346", "year": 2014, "state": "VT", "human": "Beth Henk", "address": "Burnett Rd", "_id": 8}}, {"geometry": {"type": "Point", "coordinates": [-72.99706119999999, 44.10589280000001]}, "type": "Feature", "properties": {"city": "Lincoln", "zip": "05443", "year": 2014, "state": "VT", "human": "Bill Smith", "address": "", "_id": 10}}, {"geometry": {"type": "Point", "coordinates": [-71.112794, 42.3586945]}, "type": "Feature", "properties": {"city": "Cambridge", "zip": "02139", "year": 2014, "state": "MA", "human": "Brian and Carrie", "address": "224 Chestnut St", "_id": 12}}, {"geometry": {"type": "Point", "coordinates": [-72.6064633, 43.1716817]}, "type": "Feature", "properties": {"city": "Grafton", "zip": "05146", "year": 2014, "state": "VT", "human": "Bryars", "address": "", "_id": 13}}, {"geometry": {"type": "Point", "coordinates": [-122.10465, 37.89361]}, "type": "Feature", "properties": {"city": "Lafayette", "zip": "94549", "year": 2014, "state": "CA", "human": "Byrne", "address": "1013 Dyer Dr", "_id": 14}}, {"geometry": {"type": "Point", "coordinates": [-73.21202199999999, 44.4849335]}, "type": "Feature", "properties": {"city": "Burlington", "zip": "05401", "year": 2014, "state": "VT", "human": "Cait P", "address": "248 North St", "_id": 15}}, {"geometry": {"type": "Point", "coordinates": [-122.4736562, 37.8013928]}, "type": "Feature", "properties": {"city": "SF", "zip": "94129", "year": 2014, "state": "CA", "human": "Chasse fam", "address": "1216 Ralston Avenue", "_id": 17}}, {"geometry": {"type": "Point", "coordinates": [-71.13891009999999, 42.3803274]}, "type": "Feature", "properties": {"city": "Cambridge", "zip": "02138", "year": 2014, "state": "MA", "human": "Cindy Major", "address": "", "_id": 18}}, {"geometry": {"type": "Point", "coordinates": [-72.562294, 43.053406]}, "type": "Feature", "properties": {"city": "Westminster West", "zip": "05346", "year": 2014, "state": "VT", "human": "Claire G", "address": "23 Buttercup Lane", "_id": 19}}, {"geometry": {"type": "Point", "coordinates": [-72.548653, 44.235008]}, "type": "Feature", "properties": {"city": "Berlin", "zip": "05602", "year": 2014, "state": "VT", "human": "Dan and Grace", "address": "66 Plateau Dr", "_id": 22}}, {"geometry": {"type": "Point", "coordinates": [-72.483559, 44.379898]}, "type": "Feature", "properties": {"city": "Maple Corner", "zip": "05648", "year": 2014, "state": "VT", "human": "David H", "address": "770 Robinson Cemetery Rd", "_id": 23}}, {"geometry": {"type": "Point", "coordinates": [-72.53221599999999, 44.3311016]}, "type": "Feature", "properties": {"city": "Montpelier", "zip": "05602", "year": 2014, "state": "VT", "human": "Del", "address": "450 Fitch Rd", "_id": 11}}, {"geometry": {"type": "Point", "coordinates": [-73.077097, 44.134655]}, "type": "Feature", "properties": {"city": "Bristol", "zip": "05443", "year": 2014, "state": "VT", "human": "Diane Cushman", "address": "20 Mountain View St", "_id": 21}}, {"geometry": {"type": "Point", "coordinates": [-69.7905955, 44.7130794]}, "type": "Feature", "properties": {"city": "Norridgewock", "zip": "04957", "year": 2014, "state": "ME", "human": "Ellie Baker", "address": "PO Box 494", "_id": 25}}, {"geometry": {"type": "Point", "coordinates": [-73.1896189, 44.495055]}, "type": "Feature", "properties": {"city": "Winooski", "zip": "05404", "year": 2014, "state": "VT", "human": "Ellie Denton", "address": "84 West Spring St", "_id": 27}}, {"geometry": {"type": "Point", "coordinates": [-75.8892501, 43.0526636]}, "type": "Feature", "properties": {"city": "Chittenango", "zip": "13037", "year": 2014, "state": "NY", "human": "Emily and Walt", "address": "716 Tuscarora Rd", "_id": 28}}, {"geometry": {"type": "Point", "coordinates": [-93.29621, 44.9383399]}, "type": "Feature", "properties": {"city": "Minneapolis", "zip": "55408", "year": 2014, "state": "MN", "human": "Ense", "address": "3538 Fremont Ave South", "_id": 29}}, {"geometry": {"type": "Point", "coordinates": [-74.5114497, 40.54507520000001]}, "type": "Feature", "properties": {"city": "Piscataway", "zip": "08854", "year": 2014, "state": "NJ", "human": "Free", "address": "301 River Road", "_id": 30}}, {"geometry": {"type": "Point", "coordinates": [-71.4180489, 43.0104992]}, "type": "Feature", "properties": {"city": "Manchester", "zip": "03104", "year": 2014, "state": "NH", "human": "Glen", "address": "269 Currier Dr", "_id": 31}}, {"geometry": {"type": "Point", "coordinates": [-122.252132, 37.839588]}, "type": "Feature", "properties": {"city": "Oakland", "zip": "94618", "year": 2014, "state": "CA", "human": "Goldberg Safirs", "address": "5365 Manila Ave", "_id": 33}}, {"geometry": {"type": "Point", "coordinates": [-72.86886729999999, 43.9304034]}, "type": "Feature", "properties": {"city": "Hancock", "zip": "05748", "year": 2014, "state": "VT", "human": "Granddaddy", "address": "Shampeny Hill Rd", "_id": 32}}, {"geometry": {"type": "Point", "coordinates": [-70.9756922, 42.6459013]}, "type": "Feature", "properties": {"city": "Boxford ", "zip": "01921", "year": 2014, "state": "MA", "human": "Grandma", "address": "11 Upton Ln", "_id": 34}}, {"geometry": {"type": "Point", "coordinates": [-122.4416566, 37.7838813]}, "type": "Feature", "properties": {"city": "SF", "zip": "94115", "year": 2014, "state": "CA", "human": "Gray", "address": "2411 Post St", "_id": 35}}, {"geometry": {"type": "Point", "coordinates": [-72.3123248, 44.4014456]}, "type": "Feature", "properties": {"city": "Cabot", "zip": "05647", "year": 2014, "state": "VT", "human": "Gulks", "address": "", "_id": 36}}, {"geometry": {"type": "Point", "coordinates": [-72.573155, 44.258031]}, "type": "Feature", "properties": {"city": "Montpelier", "zip": "05602", "year": 2014, "state": "VT", "human": "Hannah and Ben", "address": "3 Wilder St", "_id": 37}}, {"geometry": {"type": "Point", "coordinates": [-72.1952089, 44.0155422]}, "type": "Feature", "properties": {"city": "Bradford", "zip": "05033", "year": 2014, "state": "VT", "human": "Hanzas", "address": "Hackett Hill Rd", "_id": 38}}, {"geometry": {"type": "Point", "coordinates": [-72.575577, 44.25453599999999]}, "type": "Feature", "properties": {"city": "Montpelier", "zip": "05602", "year": 2014, "state": "VT", "human": "Homeier", "address": "61 Prospect St", "_id": 41}}, {"geometry": {"type": "Point", "coordinates": [-73.79963699999999, 40.766558]}, "type": "Feature", "properties": {"city": "Flushing", "zip": "11358", "year": 2014, "state": "NY", "human": "Horner", "address": "33-38 166 Street", "_id": 42}}, {"geometry": {"type": "Point", "coordinates": [-105.0932694, 40.5691678]}, "type": "Feature", "properties": {"city": "Fort Collins", "zip": "80521", "year": 2014, "state": "CO", "human": "Huizenga and Leah", "address": "914 W. Lake St", "_id": 43}}, {"geometry": {"type": "Point", "coordinates": [-72.4222489, 44.095963]}, "type": "Feature", "properties": {"city": "Washington", "zip": "05675", "year": 2014, "state": "VT", "human": "Jane Hartsell", "address": "979 West Corinth Rd", "_id": 48}}, {"geometry": {"type": "Point", "coordinates": [-72.699326, 43.561516]}, "type": "Feature", "properties": {"city": "Plymouth", "zip": "05056", "year": 2014, "state": "VT", "human": "Jeremy and Erin", "address": "1323 VT RT 100A", "_id": 49}}, {"geometry": {"type": "Point", "coordinates": [-122.1540105, 37.4276338]}, "type": "Feature", "properties": {"city": "Stanford", "zip": "94305", "year": 2014, "state": "CA", "human": "Jers", "address": "87 Hulme Ct", "_id": 45}}, {"geometry": {"type": "Point", "coordinates": [-73.03566409999999, 43.6606225]}, "type": "Feature", "properties": {"city": "Proctor", "zip": "05765", "year": 2014, "state": "VT", "human": "Jill Morrison", "address": "", "_id": 50}}, {"geometry": {"type": "Point", "coordinates": [-97.75532899999999, 30.282688]}, "type": "Feature", "properties": {"city": "Austin", "zip": "78703", "year": 2014, "state": "TX", "human": "Kat", "address": "1509 B Marshall Ln", "_id": 51}}, {"geometry": {"type": "Point", "coordinates": [-72.576302, 44.253895]}, "type": "Feature", "properties": {"city": "Montpelier", "zip": "05602", "year": 2014, "state": "VT", "human": "Katie and Jon", "address": "29 Pleasant St", "_id": 53}}, {"geometry": {"type": "Point", "coordinates": [-73.145279, 44.697624]}, "type": "Feature", "properties": {"city": "Milton", "zip": "05468", "year": 2014, "state": "VT", "human": "LaMoy", "address": "1049 Sandy Birch Rd", "_id": 54}}, {"geometry": {"type": "Point", "coordinates": [-72.87000730000001, 44.6212345]}, "type": "Feature", "properties": {"city": "Cambridge", "zip": "05444", "year": 2014, "state": "VT", "human": "Lanan", "address": "1546 Lower Pleasant Valley Rd", "_id": 56}}, {"geometry": {"type": "Point", "coordinates": [-77.576168, 43.129588]}, "type": "Feature", "properties": {"city": "Rochester", "zip": "14618", "year": 2014, "state": "NY", "human": "Langfitt fam", "address": "132 Eastland Avenue", "_id": 20}}, {"geometry": {"type": "Point", "coordinates": [-122.02194, 36.964651]}, "type": "Feature", "properties": {"city": "Santa Cruz", "zip": "95060", "year": 2014, "state": "CA", "human": "Langwig", "address": "208 1st St", "_id": 57}}, {"geometry": {"type": "Point", "coordinates": [-71.24455, 42.3516048]}, "type": "Feature", "properties": {"city": "Newton", "zip": "02466", "year": 2014, "state": "MA", "human": "Laurel Wickberg", "address": "17 Orris St", "_id": 58}}, {"geometry": {"type": "Point", "coordinates": [-77.23971999999999, 38.9561459]}, "type": "Feature", "properties": {"city": "Mclean", "zip": "22102", "year": 2014, "state": "VA", "human": "Lefrak", "address": "1101 brook valley lane", "_id": 59}}, {"geometry": {"type": "Point", "coordinates": [-122.4554855, 37.7949871]}, "type": "Feature", "properties": {"city": "SF", "zip": "94129", "year": 2014, "state": "CA", "human": "Lisenby's", "address": "857-B Macarthur Ave", "_id": 60}}, {"geometry": {"type": "Point", "coordinates": [-89.36738199999999, 43.078968]}, "type": "Feature", "properties": {"city": "Madison", "zip": "53703", "year": 2014, "state": "WI", "human": "Lubes", "address": "926 Spaight Street", "_id": 61}}, {"geometry": {"type": "Point", "coordinates": [-72.86886729999999, 43.9304034]}, "type": "Feature", "properties": {"city": "Hancock", "zip": "05748", "year": 2014, "state": "VT", "human": "Margie and Owen", "address": "Shampeny Hill Rd", "_id": 62}}, {"geometry": {"type": "Point", "coordinates": [-87.7076668, 41.9276478]}, "type": "Feature", "properties": {"city": "Chicago", "zip": "60647", "year": 2014, "state": "IL", "human": "Maya G", "address": "2548 N Kedzie Ave", "_id": 63}}, {"geometry": {"type": "Point", "coordinates": [-74.2347154, 42.6659873]}, "type": "Feature", "properties": {"city": "Gallupville", "zip": "12073", "year": 2014, "state": "NY", "human": "Mclean", "address": "PO Box 58", "_id": 64}}, {"geometry": {"type": "Point", "coordinates": [-73.9976946, 40.7250632]}, "type": "Feature", "properties": {"city": "NY", "zip": "10012", "year": 2014, "state": "NY", "human": "Mitts", "address": "", "_id": 66}}, {"geometry": {"type": "Point", "coordinates": [-122.31498, 37.925398]}, "type": "Feature", "properties": {"city": "El Cerrito", "zip": "94530", "year": 2014, "state": "CA", "human": "Mulls", "address": "1814 Liberty St", "_id": 67}}, {"geometry": {"type": "Point", "coordinates": [-73.100393, 44.4487809]}, "type": "Feature", "properties": {"city": "Williston", "zip": "05495", "year": 2014, "state": "VT", "human": "Naresh", "address": "28 Read Rd", "_id": 69}}, {"geometry": {"type": "Point", "coordinates": [-73.05401599999999, 44.405956]}, "type": "Feature", "properties": {"city": "Richmond", "zip": "05477", "year": 2014, "state": "VT", "human": "Nick F", "address": "759 East Hill Rd", "_id": 70}}, {"geometry": {"type": "Point", "coordinates": [-72.75905279999999, 44.343252]}, "type": "Feature", "properties": {"city": "Waterbury", "zip": "05676", "year": 2014, "state": "VT", "human": "Nick M", "address": "18 Butler St", "_id": 68}}, {"geometry": {"type": "Point", "coordinates": [-68.562811, 44.634776]}, "type": "Feature", "properties": {"city": "Ellsworth", "zip": "04605", "year": 2014, "state": "ME", "human": "Nicole Grohoski", "address": "110 Hansons Landing Rd", "_id": 71}}, {"geometry": {"type": "Point", "coordinates": [-71.16473409999999, 42.3493037]}, "type": "Feature", "properties": {"city": "Brighton", "zip": "02135", "year": 2014, "state": "MA", "human": "OB", "address": "82 Langley Rd", "_id": 73}}, {"geometry": {"type": "Point", "coordinates": [-122.2909679, 38.3059451]}, "type": "Feature", "properties": {"city": "Napa", "zip": "94559", "year": 2014, "state": "CA", "human": "Olen", "address": "1884 Main St", "_id": 74}}, {"geometry": {"type": "Point", "coordinates": [-72.5415524, 44.3068377]}, "type": "Feature", "properties": {"city": "Montpelier", "zip": "05602", "year": 2014, "state": "VT", "human": "Padilla and Todd", "address": "3435 North St", "_id": 75}}, {"geometry": {"type": "Point", "coordinates": [-80.7990185, 35.4874459]}, "type": "Feature", "properties": {"city": "Davidson", "zip": "28036", "year": 2014, "state": "NC", "human": "Paul G", "address": "PO Box 1235", "_id": 76}}, {"geometry": {"type": "Point", "coordinates": [-98.594792, 29.50487099999999]}, "type": "Feature", "properties": {"city": "San Antonio", "zip": "78240", "year": 2014, "state": "TX", "human": "PHIL", "address": "5455 Rowley Rd Apt 3202", "_id": 78}}, {"geometry": {"type": "Point", "coordinates": [-72.573696, 44.2618725]}, "type": "Feature", "properties": {"city": "Montpelier", "zip": "05602", "year": 2014, "state": "VT", "human": "Phil Zalinger", "address": "140 Main Street", "_id": 80}}, {"geometry": {"type": "Point", "coordinates": [-72.5523868, 43.61635769999999]}, "type": "Feature", "properties": {"city": "Woodstock ", "zip": "05091", "year": 2014, "state": "VT", "human": "Pollaidh", "address": "170 Barberry Hill Rd", "_id": 79}}, {"geometry": {"type": "Point", "coordinates": [-73.6667152, 40.6747188]}, "type": "Feature", "properties": {"city": "Malverne", "zip": "11565", "year": 2014, "state": "NY", "human": "Rick and Caroline", "address": "69 Utterby Road", "_id": 81}}, {"geometry": {"type": "Point", "coordinates": [-122.4699533, 37.8011757]}, "type": "Feature", "properties": {"city": "SF", "zip": "94129", "year": 2014, "state": "CA", "human": "Roberta Morganstern", "address": "1263 B Storey Avenue", "_id": 83}}, {"geometry": {"type": "Point", "coordinates": [-72.5236456, 43.0531851]}, "type": "Feature", "properties": {"city": "Westminster West", "zip": "05346", "year": 2014, "state": "VT", "human": "Robin Major", "address": "c/o Patch Farm", "_id": 85}}, {"geometry": {"type": "Point", "coordinates": [-72.56867199999999, 44.25703]}, "type": "Feature", "properties": {"city": "Montpelier", "zip": "05602", "year": 2014, "state": "VT", "human": "Robyn and Lloyd", "address": "95 E. State St", "_id": 86}}, {"geometry": {"type": "Point", "coordinates": [-16.3728707, 13.8778012]}, "type": "Feature", "properties": {"city": "Sokone", "zip": "West Africa", "year": 2014, "state": "Senegal", "human": "Roz", "address": "BP 19", "_id": 87}}, {"geometry": {"type": "Point", "coordinates": [-73.4965069, 43.257044]}, "type": "Feature", "properties": {"city": "Argyle", "zip": "12809", "year": 2014, "state": "NY", "human": "Salls", "address": "105 County Route 43", "_id": 84}}, {"geometry": {"type": "Point", "coordinates": [-73.1339, 44.274662]}, "type": "Feature", "properties": {"city": "Hinesburg", "zip": "05461", "year": 2014, "state": "VT", "human": "Sharon Rotax", "address": "20 Davis Rd", "_id": 89}}, {"geometry": {"type": "Point", "coordinates": [-122.250456, 37.88145799999999]}, "type": "Feature", "properties": {"city": "Berkeley", "zip": "94708", "year": 2014, "state": "CA", "human": "Sheldon and Matt", "address": "1577 Campus Drive", "_id": 90}}, {"geometry": {"type": "Point", "coordinates": [-83.72467499999999, 42.250721]}, "type": "Feature", "properties": {"city": "Ann Arbor", "zip": "48104", "year": 2014, "state": "MI", "human": "Skyler", "address": "1526 Pine Valley Blvd #1", "_id": 91}}, {"geometry": {"type": "Point", "coordinates": [-72.4476653, 43.1271479]}, "type": "Feature", "properties": {"city": "Bellows Falls", "zip": "05101", "year": 2014, "state": "VT", "human": "Stacey S", "address": "5 West St", "_id": 92}}, {"geometry": {"type": "Point", "coordinates": [-73.20673889999999, 44.465336]}, "type": "Feature", "properties": {"city": "Burlington", "zip": "05401", "year": 2014, "state": "VT", "human": "Stephen Pope", "address": "540 S Willard St", "_id": 93}}, {"geometry": {"type": "Point", "coordinates": [-72.5548048, 42.9862505]}, "type": "Feature", "properties": {"city": "Putney", "zip": "05346", "year": 2014, "state": "VT", "human": "Stickneys", "address": "The Putney School", "_id": 94}}, {"geometry": {"type": "Point", "coordinates": [-72.444778, 43.103477]}, "type": "Feature", "properties": {"city": "Westminster", "zip": "05158", "year": 2014, "state": "VT", "human": "Tombergs", "address": "102 Deep Root Dr", "_id": 95}}, {"geometry": {"type": "Point", "coordinates": [-72.697334, 44.51767299999999]}, "type": "Feature", "properties": {"city": "Stowe", "zip": "05672", "year": 2014, "state": "VT", "human": "Winchell", "address": "437 Maple Run Ln", "_id": 96}}, {"geometry": {"type": "Point", "coordinates": [-73.20673889999999, 44.465336]}, "type": "Feature", "properties": {"city": "Burlington", "zip": "05401", "year": 2013, "state": "VT", "human": "540 FAM", "address": "540 S Willard St", "_id": 2}}, {"geometry": {"type": "Point", "coordinates": [-77.0369864, 38.9215816]}, "type": "Feature", "properties": {"city": "Washington", "zip": "20009", "year": 2013, "state": "DC", "human": "Adranga", "address": "2420 16th St NW Apt 702", "_id": 1}}, {"geometry": {"type": "Point", "coordinates": [-122.3373806, 37.5737073]}, "type": "Feature", "properties": {"city": "San Mateo", "zip": "94401", "year": 2013, "state": "CA", "human": "Alyssa Andersen", "address": "633 Highland Avenue", "_id": 3}}, {"geometry": {"type": "Point", "coordinates": [-77.059443, 38.827326]}, "type": "Feature", "properties": {"city": "Alexandria", "zip": "22301", "year": 2013, "state": "VA", "human": "Bak", "address": "111 E Uhler Ave #202", "_id": 5}}, {"geometry": {"type": "Point", "coordinates": [-72.49355299999999, 43.300163]}, "type": "Feature", "properties": {"city": "Springfield", "zip": "05156", "year": 2013, "state": "VT", "human": "Bensons", "address": "25 Clement St", "_id": 7}}, {"geometry": {"type": "Point", "coordinates": [-72.5553714, 43.0353708]}, "type": "Feature", "properties": {"city": "Westminster West", "zip": "05346", "year": 2013, "state": "VT", "human": "Beth Henk", "address": "Burnett Rd", "_id": 8}}, {"geometry": {"type": "Point", "coordinates": [-72.99706119999999, 44.10589280000001]}, "type": "Feature", "properties": {"city": "Lincoln", "zip": "05443", "year": 2013, "state": "VT", "human": "Bill Smith", "address": "", "_id": 10}}, {"geometry": {"type": "Point", "coordinates": [-71.112794, 42.3586945]}, "type": "Feature", "properties": {"city": "Cambridge", "zip": "02139", "year": 2013, "state": "MA", "human": "Brian and Carrie", "address": "224 Chestnut St", "_id": 12}}, {"geometry": {"type": "Point", "coordinates": [-72.6064633, 43.1716817]}, "type": "Feature", "properties": {"city": "Grafton", "zip": "05146", "year": 2013, "state": "VT", "human": "Bryar's", "address": "", "_id": 13}}, {"geometry": {"type": "Point", "coordinates": [-122.10465, 37.89361]}, "type": "Feature", "properties": {"city": "Lafayette", "zip": "94549", "year": 2013, "state": "CA", "human": "Byrne", "address": "1013 Dyer Dr", "_id": 14}}, {"geometry": {"type": "Point", "coordinates": [-122.4698405, 37.7582966]}, "type": "Feature", "properties": {"city": "SF", "zip": "94122", "year": 2013, "state": "CA", "human": "CFrost", "address": "638 Lawton Street", "_id": 16}}, {"geometry": {"type": "Point", "coordinates": [-122.4812615, 37.7896118]}, "type": "Feature", "properties": {"city": "SF", "zip": "94129", "year": 2013, "state": "CA", "human": "Chasse fam", "address": "1705-A Brooks st", "_id": 17}}, {"geometry": {"type": "Point", "coordinates": [-122.503327, 37.9650627]}, "type": "Feature", "properties": {"city": "San Rafael", "zip": "94901", "year": 2013, "state": "CA", "human": "Cindy Major", "address": "", "_id": 18}}, {"geometry": {"type": "Point", "coordinates": [-72.562294, 43.053406]}, "type": "Feature", "properties": {"city": "Westminster West", "zip": "05346", "year": 2013, "state": "VT", "human": "Claire G", "address": "23 Buttercup Lane", "_id": 19}}, {"geometry": {"type": "Point", "coordinates": [-77.03683, 38.93301599999999]}, "type": "Feature", "properties": {"city": "Washington", "zip": "20010", "year": 2013, "state": "DC", "human": "Dan", "address": "3360 16th St. NW", "_id": 20}}, {"geometry": {"type": "Point", "coordinates": [-72.548147, 44.2347222]}, "type": "Feature", "properties": {"city": "Berlin", "zip": "05602", "year": 2013, "state": "VT", "human": "Dan and Grace", "address": "Plateau Dr", "_id": 22}}, {"geometry": {"type": "Point", "coordinates": [-72.483559, 44.379898]}, "type": "Feature", "properties": {"city": "Maple Corner", "zip": "05648", "year": 2013, "state": "VT", "human": "David H", "address": "770 Robinson Cemetery Rd", "_id": 23}}, {"geometry": {"type": "Point", "coordinates": [-72.5290083, 44.33318]}, "type": "Feature", "properties": {"city": "East Montpelier", "zip": "05602", "year": 2013, "state": "VT", "human": "Del", "address": "Fitch Rd", "_id": 11}}, {"geometry": {"type": "Point", "coordinates": [-73.077097, 44.134655]}, "type": "Feature", "properties": {"city": "Bristol", "zip": "05443", "year": 2013, "state": "VT", "human": "Diane Cushman", "address": "20 Mountain View St", "_id": 21}}, {"geometry": {"type": "Point", "coordinates": [-69.7905955, 44.7130794]}, "type": "Feature", "properties": {"city": "Norridgewock", "zip": "04957", "year": 2013, "state": "ME", "human": "Ellie Baker", "address": "PO Box 494", "_id": 25}}, {"geometry": {"type": "Point", "coordinates": [-93.312686, 44.924034]}, "type": "Feature", "properties": {"city": "Minneapolis", "zip": "55410", "year": 2013, "state": "MN", "human": "Ense", "address": "2701 W 43rd St. ", "_id": 29}}, {"geometry": {"type": "Point", "coordinates": [-74.47061839999999, 40.4568345]}, "type": "Feature", "properties": {"city": "North Brunswick", "zip": "08902", "year": 2013, "state": "NJ", "human": "Free", "address": "26 Lafayette Court", "_id": 30}}, {"geometry": {"type": "Point", "coordinates": [-72.86886729999999, 43.9304034]}, "type": "Feature", "properties": {"city": "Hancock", "zip": "05748", "year": 2013, "state": "VT", "human": "G and Granddaddy", "address": "Shampeny Hill Rd", "_id": 32}}, {"geometry": {"type": "Point", "coordinates": [-89.360138, 43.08587]}, "type": "Feature", "properties": {"city": "Madison", "zip": "53703", "year": 2013, "state": "WI", "human": "Glen", "address": "1411 Williamson St. #2", "_id": 31}}, {"geometry": {"type": "Point", "coordinates": [-122.252132, 37.839588]}, "type": "Feature", "properties": {"city": "Oakland", "zip": "94618", "year": 2013, "state": "CA", "human": "Goldberg Safirs", "address": "5365 Manila Ave", "_id": 33}}, {"geometry": {"type": "Point", "coordinates": [-122.4416566, 37.7838813]}, "type": "Feature", "properties": {"city": "SF", "zip": "94115", "year": 2013, "state": "CA", "human": "Gray", "address": "2411 Post St", "_id": 35}}, {"geometry": {"type": "Point", "coordinates": [-72.3123248, 44.4014456]}, "type": "Feature", "properties": {"city": "Cabot", "zip": "05647", "year": 2013, "state": "VT", "human": "Gulks", "address": "", "_id": 36}}, {"geometry": {"type": "Point", "coordinates": [-72.573155, 44.258031]}, "type": "Feature", "properties": {"city": "Montpelier", "zip": "05602", "year": 2013, "state": "VT", "human": "Hannah and Ben", "address": "3 Wilder St", "_id": 37}}, {"geometry": {"type": "Point", "coordinates": [-72.1952089, 44.0155422]}, "type": "Feature", "properties": {"city": "Bradford", "zip": "05033", "year": 2013, "state": "VT", "human": "Hanzas", "address": "Hackett Hill Rd", "_id": 38}}, {"geometry": {"type": "Point", "coordinates": [-72.575577, 44.25453599999999]}, "type": "Feature", "properties": {"city": "Montpelier", "zip": "05602", "year": 2013, "state": "VT", "human": "Homeier", "address": "61 Prospect St", "_id": 41}}, {"geometry": {"type": "Point", "coordinates": [-73.79963699999999, 40.766558]}, "type": "Feature", "properties": {"city": "Flushing", "zip": "11358", "year": 2013, "state": "NY", "human": "Horner", "address": "33 38 166 Street", "_id": 42}}, {"geometry": {"type": "Point", "coordinates": [-73.0740129, 44.131519]}, "type": "Feature", "properties": {"city": "Bristol", "zip": "05443", "year": 2013, "state": "VT", "human": "Huizenga and Fam", "address": "63 East St", "_id": 43}}, {"geometry": {"type": "Point", "coordinates": [-72.699326, 43.561516]}, "type": "Feature", "properties": {"city": "Plymouth", "zip": "05056", "year": 2013, "state": "VT", "human": "Jeremy and Erin", "address": "1323 VT RT 100A Apt A", "_id": 44}}, {"geometry": {"type": "Point", "coordinates": [-105.2577966, 39.9813261]}, "type": "Feature", "properties": {"city": "Boulder", "zip": "80305", "year": 2013, "state": "CO", "human": "Jers", "address": "871 Ithaca Dr.", "_id": 45}}, {"geometry": {"type": "Point", "coordinates": [-72.8430857, 41.4636401]}, "type": "Feature", "properties": {"city": "Wallingford", "zip": "06492", "year": 2013, "state": "CT", "human": "Jimmie and Peter", "address": "1202 Ashlar Village", "_id": 47}}, {"geometry": {"type": "Point", "coordinates": [-97.75532899999999, 30.282688]}, "type": "Feature", "properties": {"city": "Austin", "zip": "78703", "year": 2013, "state": "TX", "human": "Kat", "address": "1509 B Marshall Ln", "_id": 51}}, {"geometry": {"type": "Point", "coordinates": [-72.569633, 44.255512]}, "type": "Feature", "properties": {"city": "Montpelier", "zip": "05602", "year": 2013, "state": "VT", "human": "LaMoy", "address": "29 Kent St", "_id": 54}}, {"geometry": {"type": "Point", "coordinates": [-77.576168, 43.129588]}, "type": "Feature", "properties": {"city": "Rochester", "zip": "14618", "year": 2013, "state": "NY", "human": "Langfitt fam", "address": "132 Eastland Avenue", "_id": 100}}, {"geometry": {"type": "Point", "coordinates": [-122.02194, 36.964651]}, "type": "Feature", "properties": {"city": "Santa Cruz", "zip": "95060", "year": 2013, "state": "CA", "human": "Langwig", "address": "208 1st St Apt 1", "_id": 57}}, {"geometry": {"type": "Point", "coordinates": [-71.0948239, 42.343009]}, "type": "Feature", "properties": {"city": "Boston", "zip": "02215", "year": 2013, "state": "MA", "human": "Lefrak", "address": "51 Park Drive Apt 25", "_id": 59}}, {"geometry": {"type": "Point", "coordinates": [-122.468975, 37.7753159]}, "type": "Feature", "properties": {"city": "SF", "zip": "94118", "year": 2013, "state": "CA", "human": "Lisenby's", "address": "950 Cabrillo St", "_id": 60}}, {"geometry": {"type": "Point", "coordinates": [-89.36738199999999, 43.078968]}, "type": "Feature", "properties": {"city": "Madison", "zip": "53703", "year": 2013, "state": "WI", "human": "Lubes", "address": "926 Spaight Street", "_id": 61}}, {"geometry": {"type": "Point", "coordinates": [-87.7076668, 41.9276478]}, "type": "Feature", "properties": {"city": "Chicago", "zip": "60647", "year": 2013, "state": "IL", "human": "Maya G", "address": "2548 N Kedzie Ave", "_id": 63}}, {"geometry": {"type": "Point", "coordinates": [-74.2347154, 42.6659873]}, "type": "Feature", "properties": {"city": "Gallupville", "zip": "12073", "year": 2013, "state": "NY", "human": "Mclean", "address": "PO Box 58", "_id": 64}}, {"geometry": {"type": "Point", "coordinates": [-73.9711931, 40.7966742]}, "type": "Feature", "properties": {"city": "NY", "zip": "10025", "year": 2013, "state": "NY", "human": "Mitts", "address": "250 W 99 St. Apt 4A", "_id": 66}}, {"geometry": {"type": "Point", "coordinates": [-122.31498, 37.925398]}, "type": "Feature", "properties": {"city": "El Cerrito", "zip": "94530", "year": 2013, "state": "CA", "human": "Mulls", "address": "1814 Liberty St", "_id": 67}}, {"geometry": {"type": "Point", "coordinates": [-72.75905279999999, 44.343252]}, "type": "Feature", "properties": {"city": "Waterbury", "zip": "05676", "year": 2013, "state": "VT", "human": "Nick M", "address": "18 Butler St", "_id": 68}}, {"geometry": {"type": "Point", "coordinates": [-71.2764947, 42.1629032]}, "type": "Feature", "properties": {"city": "Medfield", "zip": "02052", "year": 2013, "state": "MA", "human": "OB", "address": "8 Stuart Street", "_id": 73}}, {"geometry": {"type": "Point", "coordinates": [-122.481392, 38.319559]}, "type": "Feature", "properties": {"city": "Sonoma", "zip": "95476", "year": 2013, "state": "CA", "human": "Olen", "address": "310 mountain ave", "_id": 74}}, {"geometry": {"type": "Point", "coordinates": [-71.3547526, 42.2828005]}, "type": "Feature", "properties": {"city": "Natick", "zip": "01760", "year": 2013, "state": "MA", "human": "Paul G", "address": "64 West Central Street", "_id": 76}}, {"geometry": {"type": "Point", "coordinates": [-95.9911257, 36.137422]}, "type": "Feature", "properties": {"city": "Tulsa", "zip": "74119", "year": 2013, "state": "OK", "human": "PHIL", "address": "1722 S. Carson Ave.", "_id": 78}}, {"geometry": {"type": "Point", "coordinates": [-72.573696, 44.2618725]}, "type": "Feature", "properties": {"city": "Montpelier", "zip": "05602", "year": 2013, "state": "VT", "human": "Phil Zalinger", "address": "140 Main Street", "_id": 80}}, {"geometry": {"type": "Point", "coordinates": [33.4719832, 0.6045832999999999]}, "type": "Feature", "properties": {"city": " Uganda", "zip": "", "year": 2013, "state": "East Africa", "human": "Pollaidh", "address": "PO Box 24 Iganga", "_id": 79}}, {"geometry": {"type": "Point", "coordinates": [-73.6667152, 40.6747188]}, "type": "Feature", "properties": {"city": "Malverne", "zip": "11565", "year": 2013, "state": "NY", "human": "Rick and Caroline", "address": "69 Utterby Road", "_id": 81}}, {"geometry": {"type": "Point", "coordinates": [-93.23576299999999, 44.960472]}, "type": "Feature", "properties": {"city": "Minneapolis", "zip": "55406", "year": 2013, "state": "MN", "human": "Robb", "address": "2213 25th ave s", "_id": 82}}, {"geometry": {"type": "Point", "coordinates": [-122.4699533, 37.8011757]}, "type": "Feature", "properties": {"city": "SF", "zip": "94129", "year": 2013, "state": "CA", "human": "Roberta Morganstern", "address": "1263 B Storey Avenue", "_id": 83}}, {"geometry": {"type": "Point", "coordinates": [-121.723371, 38.553916]}, "type": "Feature", "properties": {"city": "Davis", "zip": "95618", "year": 2013, "state": "CA", "human": "Salls", "address": "2218 E 8th St.", "_id": 84}}, {"geometry": {"type": "Point", "coordinates": [-71.5486562, 43.2086343]}, "type": "Feature", "properties": {"city": "Concord", "zip": "03301", "year": 2013, "state": "NH", "human": "Scura", "address": "", "_id": 98}}, {"geometry": {"type": "Point", "coordinates": [-122.250456, 37.88145799999999]}, "type": "Feature", "properties": {"city": "Berkeley", "zip": "94708", "year": 2013, "state": "CA", "human": "Sheldon and Matt", "address": "1577 Campus Drive", "_id": 90}}, {"geometry": {"type": "Point", "coordinates": [-72.4476653, 43.1271479]}, "type": "Feature", "properties": {"city": "Bellows Falls", "zip": "05101", "year": 2013, "state": "VT", "human": "Stacey S", "address": "5 West St", "_id": 92}}, {"geometry": {"type": "Point", "coordinates": [-72.5548048, 42.9862505]}, "type": "Feature", "properties": {"city": "Putney", "zip": "05346", "year": 2013, "state": "VT", "human": "Stickneys", "address": "The Putney School", "_id": 94}}, {"geometry": {"type": "Point", "coordinates": [-72.45577999999999, 43.139714]}, "type": "Feature", "properties": {"city": "Bellows Falls", "zip": "05101", "year": 2013, "state": "VT", "human": "Tombergs", "address": "22 Morgan St", "_id": 95}}, {"geometry": {"type": "Point", "coordinates": [-72.5126526, 43.1303141]}, "type": "Feature", "properties": {"city": "Saxtons River", "zip": "05154", "year": 2013, "state": "VT", "human": "Wickbergs", "address": "Hartley Hill Rd", "_id": 58}}]}